IRIDIUM 26              
1 24903U 97043A   25149.31724117  .00000426  00000+0  13665-3 0  9993
2 24903  86.3940 118.5496 0002402  91.7438 268.4035 14.37130376454033
IRIDIUM 29              
1 24944U 97051A   25149.40043268  .00000417  00000+0  13571-3 0  9994
2 24944  86.3961 151.7761 0002252  84.8586 275.2868 14.36451992450579
IRIDIUM 33              
1 24946U 97051C   25149.29193135  .00000263  00000+0  85626-4 0  9992
2 24946  86.3875 151.0801 0009450 129.5675 230.6357 14.34881515450031
IRIDIUM 28              
1 24948U 97051E   25148.96852517  .00000324  00000+0  10199-3 0  9993
2 24948  86.3964 149.4852 0002584  98.5827 261.5664 14.37372995451084
IRIDIUM 36              
1 24967U 97056C   25149.49168569  .00000426  00000+0  13550-3 0  9992
2 24967  86.3995 180.8463 0002587  90.5476 269.6018 14.37595508449537
